#aV2010  3 28  0  0   .00000000      96 DD+AD WGS84 FIT  NGA
## 1577       .00000000   900.00000000 55283  .0000000000000
+   30     1  2  3  4  5  6  7  8 10 11 12 13 14 15 16 17 18
+         19 20 21 22 23 24 26 27 28 29 30 31 32  0  0  0  0
+          0  0  0  0  0  0  0  0  0  0  0  0  0  0  0  0  0
+          0  0  0  0  0  0  0  0  0  0  0  0  0  0  0  0  0
+          0  0  0  0  0  0  0  0  0  0  0  0  0  0  0  0  0
++         0  0  0  0  0  0  0  0  0  0  0  0  0  0  0  0  0
++         0  0  0  0  0  0  0  0  0  0  0  0  0  0  0  0  0
++         0  0  0  0  0  0  0  0  0  0  0  0  0  0  0  0  0
++         0  0  0  0  0  0  0  0  0  0  0  0  0  0  0  0  0
++         0  0  0  0  0  0  0  0  0  0  0  0  0  0  0  0  0
%c cc cc ccc ccc cccc cccc cccc cccc ccccc ccccc ccccc ccccc
%c cc cc ccc ccc cccc cccc cccc cccc ccccc ccccc ccccc ccccc
%f  0.0000000  0.000000000  0.00000000000  0.000000000000000
%f  0.0000000  0.000000000  0.00000000000  0.000000000000000
%i    0    0    0    0      0      0      0      0         0
%i    0    0    0    0      0      0      0      0         0
/*      NGA, ST. LOUIS,MO.                                  
/*   EPHEMERIS COMPUTED FROM  3 DAYS OF DATA                
/* CCCCCCCCCCCCCCCCCCCCCCCCCCCCCCCCCCCCCCCCCCCCCCCCCCCCCCCCC
/* CCCCCCCCCCCCCCCCCCCCCCCCCCCCCCCCCCCCCCCCCCCCCCCCCCCCCCCCC
*  2010  3 28 10 30   .00000000                                                 
P  1 -13998.202157  17685.594968  13824.514247   -103.289568                    
V  1   1877.718654 -17814.712548  24631.802179      -.040234                    
P  2 -11717.470634 -21484.821903  10822.293779    240.826381                    
V  2  11879.486542   7302.099634  26800.574086       .038198                    
P  3   6965.531171  14538.112645 -21471.549571    534.256592                    
V  3 -24417.040610  10470.159384   -497.904979       .052092                    
P  4   3084.009357 -17083.132560  19836.891673     47.005868                    
V  4  19664.745552  16670.701934  11562.836485       .087274                    
P  5  -3668.735897 -23045.293455 -12625.228461     -2.534399                    
V  5   6025.119066 -15054.515663  25853.913327       .007926                    
P  6   1854.727628  15831.294697 -21051.359278    679.614078                    
V  6 -25914.296147   8514.816971   4214.949362      -.081289                    
P  7  18817.381006    157.851675 -18816.900159      1.134936                    
V  7  16404.927204  17269.968732  16402.725683      -.004614                    
P  8  10313.562692 -10231.514961 -22240.886625      4.468905                    
V  8  19230.216848  20525.741720  -1032.401074       .002660                    
P 10   2463.147466 -25637.338549  -5857.514141    -38.908808                    
V 10   4950.917643  -6229.222239  30637.363979      -.009756                    
P 11  24411.600831   9678.641010   4838.305549    -53.172622                    
V 11   3262.802260   7252.142283 -29031.798302      -.021875                    
P 12 -13333.783865  -7888.007795  21646.293271   -133.404744                    
V 12   6927.944956 -26414.873538  -5227.042258       .045372                    
P 13  26067.937280  -4872.084554   1477.794010    305.770203                    
V 13  -1600.584569   2169.894774  32379.044098      -.002825                    
P 14 -16638.142018  14325.702650  14993.160200     26.822593                    
V 14 -18609.454001   3048.454744 -23896.083166       .048888                    
P 15 -15376.111824  -9602.838736 -19434.476342   -293.407553                    
V 15  23174.036626  -8631.544013 -13943.520248       .042812                    
P 16  -1607.273888  25329.501843  -7290.516463    -55.695922                    
V 16  -4917.555488   8395.410895  30316.842168      -.038980                    
P 17  16189.314767 -15050.810713  14665.295370    140.262936                    
V 17  18468.057024  -2748.376315 -23569.095570       .028407                    
P 18 -16128.076886  11549.852635 -17221.000496     58.123748                    
V 18   3490.262030 -22447.195884 -18424.362052       .024928                    
P 19  16241.444772   9906.726887 -18620.190079    -24.303664                    
V 19 -22813.408720   6268.419631 -16237.863286      -.024286                    
P 20  15125.230921   4091.065160  21308.473605     58.728891                    
V 20  -5684.481861  26878.126338  -1063.283188      -.006604                    
P 21 -17019.093429   3947.883882 -19845.190476    -49.651492                    
V 21 -17782.545514 -18779.358878  10707.940460      -.025320                    
P 22 -12207.418796  22005.679229  -8203.178407    175.844794                    
V 22   -537.770900 -11222.536066 -28830.729248      -.011181                    
P 23  24297.780266    889.287666  11021.376685    376.048450                    
V 23 -12820.617716   5778.919216  27424.307611      -.011527                    
P 24 -16482.757135   3805.823564 -20348.082347    274.300470                    
V 24 -17163.090321 -19706.321634  10417.601901       .032928                    
P 26 -26342.821375   3166.888566  -4231.634639    -32.790447                    
V 26   4187.196519  -2400.019578 -31546.895952      -.042226                    
P 27 -20926.025531 -16451.070028   1509.766511    138.034051                    
V 27    567.040440  -2325.023578 -31975.316965       .033412                    
P 28  12889.281180 -20449.210647 -10187.206062    -19.660708                    
V 28  -1138.123349  13920.262178 -28371.274510       .007157                    
P 29 -25961.762987   4201.423754   3667.421147    108.278179                    
V 29   3678.706423  -3875.686043  31321.943057       .027493                    
P 30 -15691.314077   4731.768833  20501.607081    228.569294                    
V 30   4171.182935 -26648.324226   9224.451687       .034207                    
P 31   -347.254320  18012.031655  19668.253531    -45.187301                    
V 31 -18533.907436 -16106.457883  14749.771774       .019320                    
P 32   9915.831265  14853.048855  20109.334865     64.374835                    
V 32  -8651.619690  23133.735020 -12721.947542      -.085529                    
EOF
